[{"OBJECT_NAME":"STARLINK-34676","OBJECT_ID":"2025-152M","EPOCH":"2026-03-09T14:49:40.007424","MEAN_MOTION":15.05655301,"ECCENTRICITY":0.0001979,"INCLINATION":97.6019,"RA_OF_ASC_NODE":285.3895,"ARG_OF_PERICENTER":80.3489,"MEAN_ANOMALY":279.7962,"EPHEMERIS_TYPE":0,"CLASSIFICATION_TYPE":"U","NORAD_CAT_ID":64853,"ELEMENT_SET_NO":999,"REV_AT_EPOCH":3540,"BSTAR":0.00029449,"MEAN_MOTION_DOT":4.192e-5,"MEAN_MOTION_DDOT":0},{"OBJECT_NAME":"NTS (CANX-6)","OBJECT_ID":"2008-021B","EPOCH":"2026-03-09T21:01:43.854528","MEAN_MOTION":15.02479058,"ECCENTRICITY":0.00123192,"INCLINATION":97.9039,"RA_OF_ASC_NODE":46.2456,"ARG_OF_PERICENTER":105.3107,"MEAN_ANOMALY":254.9479,"EPHEMERIS_TYPE":0,"CLASSIFICATION_TYPE":"U","NORAD_CAT_ID":32784,"ELEMENT_SET_NO":999,"REV_AT_EPOCH":96921,"BSTAR":0.00045679857,"MEAN_MOTION_DOT":6.01e-5,"MEAN_MOTION_DDOT":0}]
